STARLINK-5802           
1 56552U 23065BB  26193.20834909  .00000368  00000+0  22896-4 0  9992
2 56552  43.0016 240.5366 0001617 267.3848  92.6818 15.27574348175517
STARLINK-6074           
1 56553U 23065BC  26193.18136609 -.00000557  00000+0 -10731-4 0  9999
2 56553  43.0042 240.3355 0001059 254.1021 105.9714 15.27576702175519
STARLINK-6295           
1 56554U 23065BD  26193.47373477  .00000861  00000+0  40800-4 0  9994
2 56554  43.0009 239.0916 0001406 264.1736  95.8955 15.27587975175553
STARLINK-6252           
1 56555U 23065BE  26193.17108824  .00000241  00000+0  18305-4 0  9991
2 56555  43.0037 240.2661 0002149 273.3789  86.6817 15.27566574175514
STARLINK-5302           
1 56556U 23065BF  26193.11984301 -.00000482  00000+0 -79894-5 0  9998
2 56556  43.0036 240.7368 0001518 281.0576  79.0105 15.27574897175504
STARLINK-6265           
1 56557U 23065BG  26193.19678366  .00000672  00000+0  33943-4 0  9991
2 56557  43.0030 240.4515 0001604 268.5135  91.5533 15.27575135175518
STARLINK-6286           
1 56558U 23065BH  26193.19757836  .00000182  00000+0  16163-4 0  9993
2 56558  43.0035 243.8605 0002081 279.2601  80.8015 15.27570813175477
BEIDOU-3 G4             
1 56564U 23066A   26193.87585236 -.00000281  00000+0  00000+0 0  9998
2 56564   0.4624 338.2363 0004869 188.1053 219.7778  1.00273217 11652
STARLINK-30122          
1 56688U 23067A   26193.29125660  .00000971  00000+0  44806-4 0  9995
2 56688  43.0057 294.3831 0001930 287.0106  73.0534 15.27576985174741
STARLINK-30129          
1 56689U 23067B   26193.33816514  .00000170  00000+0  15692-4 0  9998
2 56689  43.0036 297.2909 0001262 277.5569  82.5139 15.27573776174642
STARLINK-30124          
1 56690U 23067C   26193.67154316 -.00001673  00000+0 -51320-4 0  9991
2 56690  43.0033 295.4992 0001499 252.8480 107.2207 15.27561127174696
STARLINK-30036          
1 56692U 23067E   26193.33560091  .00000677  00000+0  34129-4 0  9996
2 56692  43.0032 297.2962 0001236 260.7877  99.2835 15.27572891173518
STARLINK-30067          
1 56693U 23067F   26193.34202135  .00000850  00000+0  40406-4 0  9998
2 56693  43.0031 297.3413 0001571 235.9006 124.1697 15.27576609174640
STARLINK-30126          
1 56694U 23067G   26193.32630504  .00000484  00000+0  27130-4 0  9994
2 56694  43.0048 290.4179 0001737 249.8296 110.2369 15.27576328174720
STARLINK-30121          
1 56695U 23067H   26193.34587124  .00001694  00000+0  71078-4 0  9990
2 56695  43.0031 297.3517 0001092 253.3189 106.7543 15.27574415174640
STARLINK-30130          
1 56697U 23067K   26193.32165453  .00001396  00000+0  60259-4 0  9995
2 56697  43.0053 286.9697 0001359 267.8497  92.2199 15.27576262174500
STARLINK-30068          
1 56698U 23067L   26193.28327103  .00001148  00000+0  51250-4 0  9999
2 56698  43.0023 276.2526 0001183 256.4237 103.6483 15.27576261174627
STARLINK-30127          
1 56699U 23067M   26193.68051884  .00000302  00000+0  20531-4 0  9993
2 56699  43.0042 295.5809 0002228 266.8727  93.1870 15.27576813174690
STARLINK-30053          
1 56700U 23067N   26193.34350243  .00002623  00000+0  10486-3 0  9995
2 56700  43.0022 287.1392 0001726 268.0107  92.0546 15.27564677174764
STARLINK-30125          
1 56701U 23067P   26193.27553682 -.00000053  00000+0  75983-5 0  9991
2 56701  43.0014 287.4904 0001683 281.9680  78.0983 15.27585107174759
STARLINK-30117          
1 56702U 23067Q   26193.29382276  .00001369  00000+0  59277-4 0  9990
2 56702  43.0024 294.3665 0001000 251.6294 108.4449 15.27579360174670
STARLINK-30132          
1 56703U 23067R   26193.63395877  .00003663  00000+0  14253-3 0  9993
2 56703  43.0022 288.4211 0000855 275.3094  84.7660 15.27588972174779
STARLINK-30066          
1 56704U 23067S   26193.32550913  .00000031  00000+0  10652-4 0  9990
2 56704  42.9994 286.9818 0001362 186.2773 173.8062 15.27567760174767
STARLINK-30080          
1 56705U 23067T   26193.26093791 -.00000501  00000+0 -86896-5 0  9998
2 56705  43.0002 279.5442 0001105 263.7909  96.2816 15.27578599174844
STARLINK-30079          
1 56706U 23067U   26193.34715926  .00002587  00000+0  10349-3 0  9991
2 56706  43.0048 297.3844 0001371 228.2546 131.8188 15.27577244174649
STARLINK-30070          
1 56707U 23067V   26193.67171817  .00000650  00000+0  33147-4 0  9994
2 56707  43.0022 285.2992 0001880 284.1362  75.9281 15.27579975174818
STARLINK-30071          
1 56708U 23067W   26193.35457584  .00001625  00000+0  68574-4 0  9993
2 56708  43.0027 290.6221 0001929 280.0205  80.0429 15.27576800174729
STARLINK-30085          
1 56709U 23067X   26193.64473766  .00000037  00000+0  10867-4 0  9994
2 56709  43.0033 285.0943 0001274 271.9252  88.1453 15.27579173174553
ONEWEB-0561             
1 56710U 23068A   26193.72769850  .00000038  00000+0  62215-4 0  9993
2 56710  87.9189 269.3539 0001680 108.9500 251.1815 13.20769590152876
ONEWEB-0668             
1 56711U 23068B   26193.58391295  .00000021  00000+0  22426-4 0  9994
2 56711  87.9076 223.7283 0002350  82.6712 277.4686 13.16595039155128
