OBJECT_NAME,OBJECT_ID,EPOCH,MEAN_MOTION,ECCENTRICITY,INCLINATION,RA_OF_ASC_NODE,ARG_OF_PERICENTER,MEAN_ANOMALY,EPHEMERIS_TYPE,CLASSIFICATION_TYPE,NORAD_CAT_ID,ELEMENT_SET_NO,REV_AT_EPOCH,BSTAR,MEAN_MOTION_DOT,MEAN_MOTION_DDOT
STARLINK-5802,2023-065BB,2026-07-12T05:00:01.361376,15.27574348,.00016175,43.0016,240.5366,267.3848,92.6818,0,U,56552,999,17551,.22895814E-4,.368E-5,0
STARLINK-6074,2023-065BC,2026-07-12T04:21:10.030176,15.27576702,.00010599,43.0042,240.3355,254.1021,105.9714,0,U,56553,999,17551,-.10730605E-4,-.557E-5,0
STARLINK-6295,2023-065BD,2026-07-12T11:22:10.684128,15.27587975,.00014067,43.0009,239.0916,264.1736,95.8955,0,U,56554,999,17555,.40799675E-4,.861E-5,0
STARLINK-6252,2023-065BE,2026-07-12T04:06:22.023936,15.27566574,.00021499,43.0037,240.2661,273.3789,86.6817,0,U,56555,999,17551,.18304722E-4,.241E-5,0
STARLINK-5302,2023-065BF,2026-07-12T02:52:34.436064,15.27574897,.00015182,43.0036,240.7368,281.0576,79.0105,0,U,56556,999,17550,-.7989403E-5,-.482E-5,0
STARLINK-6265,2023-065BG,2026-07-12T04:43:22.108224,15.27575135,.00016044,43.0030,240.4515,268.5135,91.5533,0,U,56557,999,17551,.33942823E-4,.672E-5,0
STARLINK-6286,2023-065BH,2026-07-12T04:44:30.770304,15.27570813,.00020816,43.0035,243.8605,279.2601,80.8015,0,U,56558,999,17547,.16163391E-4,.182E-5,0
BEIDOU-3 G4,2023-066A,2026-07-12T21:01:13.643904,1.00273217,.0004869,0.4624,338.2363,188.1053,219.7778,0,U,56564,999,1165,0,-.281E-5,0
STARLINK-30122,2023-067A,2026-07-12T06:59:24.570240,15.27576985,.000193,43.0057,294.3831,287.0106,73.0534,0,U,56688,999,17474,.44806E-4,.971E-5,0
STARLINK-30129,2023-067B,2026-07-12T08:06:57.468096,15.27573776,.00012623,43.0036,297.2909,277.5569,82.5139,0,U,56689,999,17464,.15691977E-4,.17E-5,0
STARLINK-30124,2023-067C,2026-07-12T16:07:01.329024,15.27561127,.0001499,43.0033,295.4992,252.8480,107.2207,0,U,56690,999,17469,-.5132E-4,-.1673E-4,0
STARLINK-30036,2023-067E,2026-07-12T08:03:15.918624,15.27572891,.00012363,43.0032,297.2962,260.7877,99.2835,0,U,56692,999,17351,.34128891E-4,.677E-5,0
STARLINK-30067,2023-067F,2026-07-12T08:12:30.644640,15.27576609,.00015712,43.0031,297.3413,235.9006,124.1697,0,U,56693,999,17464,.40405596E-4,.85E-5,0
STARLINK-30126,2023-067G,2026-07-12T07:49:52.755456,15.27576328,.0001737,43.0048,290.4179,249.8296,110.2369,0,U,56694,999,17472,.27129634E-4,.484E-5,0
STARLINK-30121,2023-067H,2026-07-12T08:18:03.275136,15.27574415,.00010921,43.0031,297.3517,253.3189,106.7543,0,U,56695,999,17464,.71077891E-4,.1694E-4,0
STARLINK-30130,2023-067K,2026-07-12T07:43:10.951392,15.27576262,.00013597,43.0053,286.9697,267.8497,92.2199,0,U,56697,999,17450,.60259072E-4,.1396E-4,0
STARLINK-30068,2023-067L,2026-07-12T06:47:54.616992,15.27576261,.0001183,43.0023,276.2526,256.4237,103.6483,0,U,56698,999,17462,.5125E-4,.1148E-4,0
STARLINK-30127,2023-067M,2026-07-12T16:19:56.827776,15.27576813,.0002228,43.0042,295.5809,266.8727,93.1870,0,U,56699,999,17469,.20531E-4,.302E-5,0
STARLINK-30053,2023-067N,2026-07-12T08:14:38.609952,15.27564677,.00017267,43.0022,287.1392,268.0107,92.0546,0,U,56700,999,17476,.10485544E-3,.2623E-4,0
STARLINK-30125,2023-067P,2026-07-12T06:36:46.381248,15.27585107,.0001683,43.0014,287.4904,281.9680,78.0983,0,U,56701,999,17475,.75983E-5,-.53E-6,0
STARLINK-30117,2023-067Q,2026-07-12T07:03:06.286464,15.27579360,.00010008,43.0024,294.3665,251.6294,108.4449,0,U,56702,999,17467,.59277287E-4,.1369E-4,0
STARLINK-30132,2023-067R,2026-07-12T15:12:54.037728,15.27588972,.0000855,43.0022,288.4211,275.3094,84.7660,0,U,56703,999,17477,.14253E-3,.3663E-4,0
STARLINK-30066,2023-067S,2026-07-12T07:48:43.988832,15.27567760,.00013622,42.9994,286.9818,186.2773,173.8062,0,U,56704,999,17476,.10652076E-4,.31E-6,0
STARLINK-30080,2023-067T,2026-07-12T06:15:45.035424,15.27578599,.0001105,43.0002,279.5442,263.7909,96.2816,0,U,56705,999,17484,-.86896E-5,-.501E-5,0
STARLINK-30079,2023-067U,2026-07-12T08:19:54.560064,15.27577244,.00013711,43.0048,297.3844,228.2546,131.8188,0,U,56706,999,17464,.10349357E-3,.2587E-4,0
STARLINK-30070,2023-067V,2026-07-12T16:07:16.449888,15.27579975,.000188,43.0022,285.2992,284.1362,75.9281,0,U,56707,999,17481,.33147E-4,.65E-5,0
STARLINK-30071,2023-067W,2026-07-12T08:30:35.352576,15.27576800,.00019299,43.0027,290.6221,280.0205,80.0429,0,U,56708,999,17472,.68573673E-4,.1625E-4,0
STARLINK-30085,2023-067X,2026-07-12T15:28:25.333824,15.27579173,.0001274,43.0033,285.0943,271.9252,88.1453,0,U,56709,999,17455,.10867E-4,.37E-6,0
ONEWEB-0561,2023-068A,2026-07-12T17:27:53.150400,13.20769590,.000168,87.9189,269.3539,108.9500,251.1815,0,U,56710,999,15287,.62215E-4,.38E-6,0
ONEWEB-0668,2023-068B,2026-07-12T14:00:50.078880,13.16595039,.000235,87.9076,223.7283,82.6712,277.4686,0,U,56711,999,15512,.22426E-4,.21E-6,0
